start=new Date('2022-06-04T00:00:00.000Z').valueOf();
sats=[{"NORAD_CAT_ID":"49450","REF_FRAME":"TEME","RCS_SIZE":"LARGE","LAUNCH_DATE":"2021-11-13","PERIAPSIS":"538.163","OBJECT_ID":"2021-104AU","RA_OF_ASC_NODE":"271.7951","TLE_LINE2":"2 49450  53.2161 271.7951 0002314  34.1308 325.9832 15.08833983 31456","MEAN_MOTION_DDOT":"0.0000000000000","MEAN_MOTION_DOT":"-0.00000592","SEMIMAJOR_AXIS":"6917.899","MEAN_MOTION":"15.08833983","MEAN_ELEMENT_THEORY":"SGP4","TLE_LINE1":"1 49450U 21104AU  22154.67935718 -.00000592  00000-0 -19073-4 0  9992","FILE":"3479630","REV_AT_EPOCH":"3145","PERIOD":"95.438","ELEMENT_SET_NO":"999","INCLINATION":"53.2161","MEAN_ANOMALY":"325.9832","COUNTRY_CODE":"US","ARG_OF_PERICENTER":"34.1308","EPOCH":"2022-06-03T16:18:16.460352","TIME_SYSTEM":"UTC","EPHEMERIS_TYPE":"0","ECCENTRICITY":"0.00023140","OBJECT_NAME":"STARLINK-3127","DECAY_DATE":null,"APOAPSIS":"541.365","SITE":"AFETR","BSTAR":"-0.00001907300000","CENTER_NAME":"EARTH","GP_ID":"205299054","OBJECT_TYPE":"PAYLOAD","CLASSIFICATION_TYPE":"U"},{"NORAD_CAT_ID":"49451","REF_FRAME":"TEME","LAUNCH_DATE":"2021-11-13","RCS_SIZE":"LARGE","OBJECT_ID":"2021-104AV","PERIAPSIS":"537.903","MEAN_MOTION_DDOT":"0.0000000000000","TLE_LINE2":"2 49451  53.2192 272.1249 0002631  34.1370 325.9791 15.08847397 31185","RA_OF_ASC_NODE":"272.1249","MEAN_MOTION_DOT":"0.00000151","SEMIMAJOR_AXIS":"6917.858","MEAN_MOTION":"15.08847397","FILE":"3479630","TLE_LINE1":"1 49451U 21104AV  22154.60206604  .00000151  00000-0  27583-4 0  9995","MEAN_ELEMENT_THEORY":"SGP4","REV_AT_EPOCH":"3118","ELEMENT_SET_NO":"999","PERIOD":"95.437","COUNTRY_CODE":"US","MEAN_ANOMALY":"325.9791","INCLINATION":"53.2192","TIME_SYSTEM":"UTC","ARG_OF_PERICENTER":"34.1370","EPOCH":"2022-06-03T14:26:58.505856","DECAY_DATE":null,"SITE":"AFETR","BSTAR":"0.00002758300000","APOAPSIS":"541.543","OBJECT_NAME":"STARLINK-3125","EPHEMERIS_TYPE":"0","ECCENTRICITY":"0.00026310","CLASSIFICATION_TYPE":"U","OBJECT_TYPE":"PAYLOAD","GP_ID":"205299306","CENTER_NAME":"EARTH"},{"OBJECT_ID":"2021-104AW","PERIAPSIS":"538.103","MEAN_MOTION_DDOT":"0.0000000000000","TLE_LINE2":"2 49452  53.2185 271.5856 0002384  30.6144 329.4987 15.08837695 31209","RA_OF_ASC_NODE":"271.5856","SEMIMAJOR_AXIS":"6917.887","MEAN_MOTION_DOT":"0.00001220","MEAN_MOTION":"15.08837695","NORAD_CAT_ID":"49452","REF_FRAME":"TEME","LAUNCH_DATE":"2021-11-13","RCS_SIZE":"LARGE","TIME_SYSTEM":"UTC","ARG_OF_PERICENTER":"30.6144","EPOCH":"2022-06-03T17:17:56.141088","DECAY_DATE":null,"APOAPSIS":"541.402","SITE":"AFETR","BSTAR":"0.00009477700000","OBJECT_NAME":"STARLINK-3150","ECCENTRICITY":"0.00023840","EPHEMERIS_TYPE":"0","CLASSIFICATION_TYPE":"U","OBJECT_TYPE":"PAYLOAD","GP_ID":"205300056","CENTER_NAME":"EARTH","FILE":"3479630","TLE_LINE1":"1 49452U 21104AW  22154.72078867  .00001220  00000-0  94777-4 0  9994","MEAN_ELEMENT_THEORY":"SGP4","REV_AT_EPOCH":"3120","ELEMENT_SET_NO":"999","PERIOD":"95.438","COUNTRY_CODE":"US","MEAN_ANOMALY":"329.4987","INCLINATION":"53.2185"},{"EPHEMERIS_TYPE":"0","ECCENTRICITY":"0.00024080","OBJECT_NAME":"STARLINK-3129","DECAY_DATE":null,"SITE":"AFETR","APOAPSIS":"541.409","BSTAR":"-0.00000099848000","EPOCH":"2022-06-03T19:02:32.602560","ARG_OF_PERICENTER":"36.2671","TIME_SYSTEM":"UTC","CENTER_NAME":"EARTH","OBJECT_TYPE":"PAYLOAD","GP_ID":"205298305","CLASSIFICATION_TYPE":"U","REV_AT_EPOCH":"3121","MEAN_ELEMENT_THEORY":"SGP4","TLE_LINE1":"1 49453U 21104AX  22154.79343290 -.00000304  00000-0 -99848-6 0  9997","FILE":"3479630","INCLINATION":"53.2182","MEAN_ANOMALY":"323.8484","COUNTRY_CODE":"US","PERIOD":"95.438","ELEMENT_SET_NO":"999","RA_OF_ASC_NODE":"271.2641","TLE_LINE2":"2 49453  53.2182 271.2641 0002408  36.2671 323.8484 15.08840820 31215","MEAN_MOTION_DDOT":"0.0000000000000","PERIAPSIS":"538.077","OBJECT_ID":"2021-104AX","SEMIMAJOR_AXIS":"6917.878","MEAN_MOTION":"15.08840820","MEAN_MOTION_DOT":"-0.00000304","NORAD_CAT_ID":"49453","RCS_SIZE":"LARGE","LAUNCH_DATE":"2021-11-13","REF_FRAME":"TEME"},{"SEMIMAJOR_AXIS":"6917.798","MEAN_MOTION_DOT":"-0.00004866","MEAN_MOTION":"15.08866967","PERIAPSIS":"537.441","OBJECT_ID":"2021-104AY","RA_OF_ASC_NODE":"272.1488","TLE_LINE2":"2 49454  53.2198 272.1488 0003212  18.9316 341.1795 15.08866967 31183","MEAN_MOTION_DDOT":"0.0000000000000","REF_FRAME":"TEME","RCS_SIZE":"LARGE","LAUNCH_DATE":"2021-11-13","NORAD_CAT_ID":"49454","CENTER_NAME":"EARTH","OBJECT_TYPE":"PAYLOAD","GP_ID":"205298555","CLASSIFICATION_TYPE":"U","EPOCH":"2022-06-03T14:21:40.796640","ARG_OF_PERICENTER":"18.9316","TIME_SYSTEM":"UTC","EPHEMERIS_TYPE":"0","ECCENTRICITY":"0.00032120","OBJECT_NAME":"STARLINK-3160","DECAY_DATE":null,"SITE":"AFETR","APOAPSIS":"541.885","BSTAR":"-0.00028756000000","PERIOD":"95.436","ELEMENT_SET_NO":"999","INCLINATION":"53.2198","MEAN_ANOMALY":"341.1795","COUNTRY_CODE":"US","MEAN_ELEMENT_THEORY":"SGP4","TLE_LINE1":"1 49454U 21104AY  22154.59838885 -.00004866  00000-0 -28756-3 0  9999","FILE":"3479630","REV_AT_EPOCH":"3118"},{"EPHEMERIS_TYPE":"0","ECCENTRICITY":"0.00022760","OBJECT_NAME":"STARLINK-3145","SITE":"AFETR","DECAY_DATE":null,"BSTAR":"-0.00004619700000","APOAPSIS":"541.325","ARG_OF_PERICENTER":"33.1207","EPOCH":"2022-06-03T20:22:01.950816","TIME_SYSTEM":"UTC","CENTER_NAME":"EARTH","GP_ID":"205299806","OBJECT_TYPE":"PAYLOAD","CLASSIFICATION_TYPE":"U","REV_AT_EPOCH":"3122","MEAN_ELEMENT_THEORY":"SGP4","TLE_LINE1":"1 49455U 21104AZ  22154.84863369 -.00001023  00000-0 -46197-4 0  9995","FILE":"3479630","INCLINATION":"53.2182","MEAN_ANOMALY":"326.9927","COUNTRY_CODE":"US","PERIOD":"95.438","ELEMENT_SET_NO":"999","RA_OF_ASC_NODE":"271.0100","MEAN_MOTION_DDOT":"0.0000000000000","TLE_LINE2":"2 49455  53.2182 271.0100 0002276  33.1207 326.9927 15.08838430 31220","PERIAPSIS":"538.176","OBJECT_ID":"2021-104AZ","MEAN_MOTION_DOT":"-0.00001023","SEMIMAJOR_AXIS":"6917.885","MEAN_MOTION":"15.08838430","NORAD_CAT_ID":"49455","RCS_SIZE":"LARGE","LAUNCH_DATE":"2021-11-13","REF_FRAME":"TEME"},{"ARG_OF_PERICENTER":"37.2940","EPOCH":"2022-06-03T17:21:51.096384","TIME_SYSTEM":"UTC","OBJECT_NAME":"STARLINK-3124","ECCENTRICITY":"0.00028460","EPHEMERIS_TYPE":"0","APOAPSIS":"541.679","DECAY_DATE":null,"SITE":"AFETR","BSTAR":"-0.00010279000000","CENTER_NAME":"EARTH","CLASSIFICATION_TYPE":"U","OBJECT_TYPE":"PAYLOAD","GP_ID":"205299557","MEAN_ELEMENT_THEORY":"SGP4","FILE":"3479630","TLE_LINE1":"1 49456U 21104BA  22154.72350806 -.00001925  00000-0 -10279-3 0  9992","REV_AT_EPOCH":"3120","ELEMENT_SET_NO":"999","PERIOD":"95.437","MEAN_ANOMALY":"322.8249","INCLINATION":"53.2201","COUNTRY_CODE":"US","PERIAPSIS":"537.741","OBJECT_ID":"2021-104BA","RA_OF_ASC_NODE":"271.5875","MEAN_MOTION_DDOT":"0.0000000000000","TLE_LINE2":"2 49456  53.2201 271.5875 0002846  37.2940 322.8249 15.08851553 31200","MEAN_MOTION":"15.08851553","SEMIMAJOR_AXIS":"6917.845","MEAN_MOTION_DOT":"-0.00001925","NORAD_CAT_ID":"49456","REF_FRAME":"TEME","RCS_SIZE":"LARGE","LAUNCH_DATE":"2021-11-13"},{"MEAN_MOTION_DDOT":"0.0000000000000","TLE_LINE2":"2 49457  53.2191 271.6274 0002470  30.6177 329.4959 15.08856248 31202","RA_OF_ASC_NODE":"271.6274","OBJECT_ID":"2021-104BB","PERIAPSIS":"537.987","MEAN_MOTION_DOT":"0.00001455","SEMIMAJOR_AXIS":"6917.831","MEAN_MOTION":"15.08856248","NORAD_CAT_ID":"49457","LAUNCH_DATE":"2021-11-13","RCS_SIZE":"LARGE","REF_FRAME":"TEME","DECAY_DATE":null,"BSTAR":"0.00010948000000","SITE":"AFETR","APOAPSIS":"541.404","OBJECT_NAME":"STARLINK-3132","ECCENTRICITY":"0.00024700","EPHEMERIS_TYPE":"0","TIME_SYSTEM":"UTC","EPOCH":"2022-06-03T17:05:56.664960","ARG_OF_PERICENTER":"30.6177","CLASSIFICATION_TYPE":"U","OBJECT_TYPE":"PAYLOAD","GP_ID":"205298805","CENTER_NAME":"EARTH","REV_AT_EPOCH":"3120","TLE_LINE1":"1 49457U 21104BB  22154.71246140  .00001455  00000-0  10948-3 0  9996","FILE":"3479630","MEAN_ELEMENT_THEORY":"SGP4","COUNTRY_CODE":"US","MEAN_ANOMALY":"329.4959","INCLINATION":"53.2191","ELEMENT_SET_NO":"999","PERIOD":"95.437"},{"SEMIMAJOR_AXIS":"6917.858","MEAN_MOTION":"15.08847261","MEAN_MOTION_DOT":"-0.00001707","RA_OF_ASC_NODE":"271.8917","MEAN_MOTION_DDOT":"0.0000000000000","TLE_LINE2":"2 49458  53.2186 271.8917 0002806  31.2627 328.8531 15.08847261 31195","PERIAPSIS":"537.782","OBJECT_ID":"2021-104BC","RCS_SIZE":"LARGE","LAUNCH_DATE":"2021-11-13","REF_FRAME":"TEME","NORAD_CAT_ID":"49458","CENTER_NAME":"EARTH","CLASSIFICATION_TYPE":"U","GP_ID":"205299055","OBJECT_TYPE":"PAYLOAD","OBJECT_NAME":"STARLINK-3156","EPHEMERIS_TYPE":"0","ECCENTRICITY":"0.00028060","BSTAR":"-0.00008911700000","DECAY_DATE":null,"SITE":"AFETR","APOAPSIS":"541.664","EPOCH":"2022-06-03T15:41:10.565664","ARG_OF_PERICENTER":"31.2627","TIME_SYSTEM":"UTC","MEAN_ANOMALY":"328.8531","INCLINATION":"53.2186","COUNTRY_CODE":"US","ELEMENT_SET_NO":"999","PERIOD":"95.437","REV_AT_EPOCH":"3119","MEAN_ELEMENT_THEORY":"SGP4","FILE":"3479630","TLE_LINE1":"1 49458U 21104BC  22154.65359451 -.00001707  00000-0 -89117-4 0  9997"},{"EPOCH":"2022-06-03T17:00:40.159296","ARG_OF_PERICENTER":"26.4874","TIME_SYSTEM":"UTC","ECCENTRICITY":"0.00028090","EPHEMERIS_TYPE":"0","OBJECT_NAME":"STARLINK-3141","SITE":"AFETR","DECAY_DATE":null,"APOAPSIS":"541.691","BSTAR":"-0.00003717700000","CENTER_NAME":"EARTH","OBJECT_TYPE":"PAYLOAD","GP_ID":"205299307","CLASSIFICATION_TYPE":"U","MEAN_ELEMENT_THEORY":"SGP4","FILE":"3479630","TLE_LINE1":"1 49459U 21104BD  22154.70879814 -.00000880  00000-0 -37177-4 0  9994","REV_AT_EPOCH":"3120","PERIOD":"95.438","ELEMENT_SET_NO":"999","INCLINATION":"53.2195","MEAN_ANOMALY":"333.6261","COUNTRY_CODE":"US","PERIAPSIS":"537.805","OBJECT_ID":"2021-104BD","RA_OF_ASC_NODE":"271.6490","TLE_LINE2":"2 49459  53.2195 271.6490 0002809  26.4874 333.6261 15.08839212 31206","MEAN_MOTION_DDOT":"0.0000000000000","MEAN_MOTION":"15.08839212","SEMIMAJOR_AXIS":"6917.883","MEAN_MOTION_DOT":"-0.00000880","NORAD_CAT_ID":"49459","REF_FRAME":"TEME","RCS_SIZE":"LARGE","LAUNCH_DATE":"2021-11-13"}];
